ONEWEB-0446             
1 51640U 22012U   26053.02358627 -.00000161  00000+0 -49867-3 0  9998
2 51640  87.8749  59.2254 0001998  89.8645 270.2711 13.10370156194242
ONEWEB-0448             
1 51641U 22012V   26053.02856264 -.00000411  00000+0 -12124-2 0  9992
2 51641  87.8747  59.2228 0001800  92.3638 267.7696 13.10370423194212
ONEWEB-0449             
1 51642U 22012W   26053.03353877 -.00000552  00000+0 -16173-2 0  9990
2 51642  87.8760  59.1993 0001793  75.1471 284.9855 13.10371152194220
ONEWEB-0451             
1 51643U 22012X   26053.16555181  .00000049  00000+0  93631-4 0  9992
2 51643  87.9131  28.6766 0001859  80.4729 279.6613 13.17648541198516
ONEWEB-0452             
1 51644U 22012Y   26052.93605998  .00000036  00000+0  60508-4 0  9992
2 51644  87.9121  28.7702 0001668  75.8213 284.3103 13.17648179198492
ONEWEB-0456             
1 51646U 22012AA  26053.04349024 -.00000808  00000+0 -23514-2 0  9995
2 51646  87.8771  59.1741 0001756  94.0827 266.0501 13.10374317194260
ONEWEB-0457             
1 51647U 22012AB  26053.02029168  .00000086  00000+0  20987-3 0  9996
2 51647  87.8751  59.2133 0002219  83.0347 277.1033 13.10371827194261
ONEWEB-0458             
1 51648U 22012AC  26053.04184019 -.00000688  00000+0 -20062-2 0  9999
2 51648  87.8762  59.1891 0001725  85.5934 274.5391 13.10372783194220
ONEWEB-0461             
1 51649U 22012AD  26053.18579669  .00000049  00000+0  93785-4 0  9997
2 51649  87.9130  28.6874 0002024  82.8023 277.3339 13.17649202198749
ONEWEB-0463             
1 51650U 22012AE  26052.93943067  .00000060  00000+0  12057-3 0  9993
2 51650  87.9119  28.7707 0002035  84.9441 275.1923 13.17648320198490
ONEWEB-0464             
1 51651U 22012AF  26053.03851757 -.00000683  00000+0 -19927-2 0  9995
2 51651  87.8752  59.2192 0001648  96.8799 263.2516 13.10372472194247
ONEWEB-0468             
1 51652U 22012AG  26053.04515541 -.00000594  00000+0 -17378-2 0  9994
2 51652  87.8755  59.2126 0001529  95.9401 264.1901 13.10376772194229
ONEWEB-0473             
1 51653U 22012AH  26053.03021979 -.00000439  00000+0 -12931-2 0  9999
2 51653  87.8748  59.2170 0001714  88.9705 271.1619 13.10370639194226
ONEWEB-0474             
1 51654U 22012AJ  26053.02192740 -.00000037  00000+0 -14284-3 0  9992
2 51654  87.8759  59.1922 0001569  92.0919 268.0388 13.10369300194214
ONEWEB-0475             
1 51655U 22012AK  26053.17904806  .00000007  00000+0 -15442-4 0  9997
2 51655  87.9124  28.7146 0001190  81.5770 278.5496 13.17647899198545
ONEWEB-0490             
1 54113U 22138A   26053.04468654  .00000110  00000+0  24302-3 0  9998
2 54113  87.9255 327.8925 0001637  85.0592 275.0727 13.19724216161648
ONEWEB-0492             
1 54114U 22138B   26053.14577838  .00000049  00000+0  90506-4 0  9996
2 54114  87.9249 327.8817 0001764  87.4686 272.6649 13.19725147161665
