[{"OBJECT_NAME":"ONEWEB-0446","OBJECT_ID":"2022-012U","EPOCH":"2026-02-22T00:33:57.853728","MEAN_MOTION":13.10370156,"ECCENTRICITY":0.0001998,"INCLINATION":87.8749,"RA_OF_ASC_NODE":59.2254,"ARG_OF_PERICENTER":89.8645,"MEAN_ANOMALY":270.2711,"EPHEMERIS_TYPE":0,"CLASSIFICATION_TYPE":"U","NORAD_CAT_ID":51640,"ELEMENT_SET_NO":999,"REV_AT_EPOCH":19424,"BSTAR":-0.00049867,"MEAN_MOTION_DOT":-1.61e-6,"MEAN_MOTION_DDOT":0},{"OBJECT_NAME":"ONEWEB-0448","OBJECT_ID":"2022-012V","EPOCH":"2026-02-22T00:41:07.812096","MEAN_MOTION":13.10370423,"ECCENTRICITY":0.00018,"INCLINATION":87.8747,"RA_OF_ASC_NODE":59.2228,"ARG_OF_PERICENTER":92.3638,"MEAN_ANOMALY":267.7696,"EPHEMERIS_TYPE":0,"CLASSIFICATION_TYPE":"U","NORAD_CAT_ID":51641,"ELEMENT_SET_NO":999,"REV_AT_EPOCH":19421,"BSTAR":-0.0012124,"MEAN_MOTION_DOT":-4.11e-6,"MEAN_MOTION_DDOT":0},{"OBJECT_NAME":"ONEWEB-0449","OBJECT_ID":"2022-012W","EPOCH":"2026-02-22T00:48:17.749728","MEAN_MOTION":13.10371152,"ECCENTRICITY":0.0001793,"INCLINATION":87.876,"RA_OF_ASC_NODE":59.1993,"ARG_OF_PERICENTER":75.1471,"MEAN_ANOMALY":284.9855,"EPHEMERIS_TYPE":0,"CLASSIFICATION_TYPE":"U","NORAD_CAT_ID":51642,"ELEMENT_SET_NO":999,"REV_AT_EPOCH":19422,"BSTAR":-0.0016173,"MEAN_MOTION_DOT":-5.52e-6,"MEAN_MOTION_DDOT":0},{"OBJECT_NAME":"ONEWEB-0451","OBJECT_ID":"2022-012X","EPOCH":"2026-02-22T03:58:23.676384","MEAN_MOTION":13.17648541,"ECCENTRICITY":0.0001859,"INCLINATION":87.9131,"RA_OF_ASC_NODE":28.6766,"ARG_OF_PERICENTER":80.4729,"MEAN_ANOMALY":279.6613,"EPHEMERIS_TYPE":0,"CLASSIFICATION_TYPE":"U","NORAD_CAT_ID":51643,"ELEMENT_SET_NO":999,"REV_AT_EPOCH":19851,"BSTAR":9.3631e-5,"MEAN_MOTION_DOT":4.9e-7,"MEAN_MOTION_DDOT":0},{"OBJECT_NAME":"ONEWEB-0452","OBJECT_ID":"2022-012Y","EPOCH":"2026-02-21T22:27:55.582272","MEAN_MOTION":13.17648179,"ECCENTRICITY":0.0001668,"INCLINATION":87.9121,"RA_OF_ASC_NODE":28.7702,"ARG_OF_PERICENTER":75.8213,"MEAN_ANOMALY":284.3103,"EPHEMERIS_TYPE":0,"CLASSIFICATION_TYPE":"U","NORAD_CAT_ID":51644,"ELEMENT_SET_NO":999,"REV_AT_EPOCH":19849,"BSTAR":6.0508e-5,"MEAN_MOTION_DOT":3.6e-7,"MEAN_MOTION_DDOT":0},{"OBJECT_NAME":"ONEWEB-0456","OBJECT_ID":"2022-012AA","EPOCH":"2026-02-22T01:02:37.556736","MEAN_MOTION":13.10374317,"ECCENTRICITY":0.0001756,"INCLINATION":87.8771,"RA_OF_ASC_NODE":59.1741,"ARG_OF_PERICENTER":94.0827,"MEAN_ANOMALY":266.0501,"EPHEMERIS_TYPE":0,"CLASSIFICATION_TYPE":"U","NORAD_CAT_ID":51646,"ELEMENT_SET_NO":999,"REV_AT_EPOCH":19426,"BSTAR":-0.0023514,"MEAN_MOTION_DOT":-8.08e-6,"MEAN_MOTION_DDOT":0},{"OBJECT_NAME":"ONEWEB-0457","OBJECT_ID":"2022-012AB","EPOCH":"2026-02-22T00:29:13.201152","MEAN_MOTION":13.10371827,"ECCENTRICITY":0.0002219,"INCLINATION":87.8751,"RA_OF_ASC_NODE":59.2133,"ARG_OF_PERICENTER":83.0347,"MEAN_ANOMALY":277.1033,"EPHEMERIS_TYPE":0,"CLASSIFICATION_TYPE":"U","NORAD_CAT_ID":51647,"ELEMENT_SET_NO":999,"REV_AT_EPOCH":19426,"BSTAR":0.00020987,"MEAN_MOTION_DOT":8.6e-7,"MEAN_MOTION_DDOT":0},{"OBJECT_NAME":"ONEWEB-0458","OBJECT_ID":"2022-012AC","EPOCH":"2026-02-22T01:00:14.992416","MEAN_MOTION":13.10372783,"ECCENTRICITY":0.0001725,"INCLINATION":87.8762,"RA_OF_ASC_NODE":59.1891,"ARG_OF_PERICENTER":85.5934,"MEAN_ANOMALY":274.5391,"EPHEMERIS_TYPE":0,"CLASSIFICATION_TYPE":"U","NORAD_CAT_ID":51648,"ELEMENT_SET_NO":999,"REV_AT_EPOCH":19422,"BSTAR":-0.0020062,"MEAN_MOTION_DOT":-6.88e-6,"MEAN_MOTION_DDOT":0},{"OBJECT_NAME":"ONEWEB-0461","OBJECT_ID":"2022-012AD","EPOCH":"2026-02-22T04:27:32.834016","MEAN_MOTION":13.17649202,"ECCENTRICITY":0.0002024,"INCLINATION":87.913,"RA_OF_ASC_NODE":28.6874,"ARG_OF_PERICENTER":82.8023,"MEAN_ANOMALY":277.3339,"EPHEMERIS_TYPE":0,"CLASSIFICATION_TYPE":"U","NORAD_CAT_ID":51649,"ELEMENT_SET_NO":999,"REV_AT_EPOCH":19874,"BSTAR":9.3785e-5,"MEAN_MOTION_DOT":4.9e-7,"MEAN_MOTION_DDOT":0},{"OBJECT_NAME":"ONEWEB-0463","OBJECT_ID":"2022-012AE","EPOCH":"2026-02-21T22:32:46.809888","MEAN_MOTION":13.1764832,"ECCENTRICITY":0.0002035,"INCLINATION":87.9119,"RA_OF_ASC_NODE":28.7707,"ARG_OF_PERICENTER":84.9441,"MEAN_ANOMALY":275.1923,"EPHEMERIS_TYPE":0,"CLASSIFICATION_TYPE":"U","NORAD_CAT_ID":51650,"ELEMENT_SET_NO":999,"REV_AT_EPOCH":19849,"BSTAR":0.00012057,"MEAN_MOTION_DOT":6.0e-7,"MEAN_MOTION_DDOT":0},{"OBJECT_NAME":"ONEWEB-0464","OBJECT_ID":"2022-012AF","EPOCH":"2026-02-22T00:55:27.918048","MEAN_MOTION":13.10372472,"ECCENTRICITY":0.0001648,"INCLINATION":87.8752,"RA_OF_ASC_NODE":59.2192,"ARG_OF_PERICENTER":96.8799,"MEAN_ANOMALY":263.2516,"EPHEMERIS_TYPE":0,"CLASSIFICATION_TYPE":"U","NORAD_CAT_ID":51651,"ELEMENT_SET_NO":999,"REV_AT_EPOCH":19424,"BSTAR":-0.0019927,"MEAN_MOTION_DOT":-6.83e-6,"MEAN_MOTION_DDOT":0},{"OBJECT_NAME":"ONEWEB-0468","OBJECT_ID":"2022-012AG","EPOCH":"2026-02-22T01:05:01.427424","MEAN_MOTION":13.10376772,"ECCENTRICITY":0.0001529,"INCLINATION":87.8755,"RA_OF_ASC_NODE":59.2126,"ARG_OF_PERICENTER":95.9401,"MEAN_ANOMALY":264.1901,"EPHEMERIS_TYPE":0,"CLASSIFICATION_TYPE":"U","NORAD_CAT_ID":51652,"ELEMENT_SET_NO":999,"REV_AT_EPOCH":19422,"BSTAR":-0.0017378,"MEAN_MOTION_DOT":-5.94e-6,"MEAN_MOTION_DDOT":0},{"OBJECT_NAME":"ONEWEB-0473","OBJECT_ID":"2022-012AH","EPOCH":"2026-02-22T00:43:30.989856","MEAN_MOTION":13.10370639,"ECCENTRICITY":0.0001714,"INCLINATION":87.8748,"RA_OF_ASC_NODE":59.217,"ARG_OF_PERICENTER":88.9705,"MEAN_ANOMALY":271.1619,"EPHEMERIS_TYPE":0,"CLASSIFICATION_TYPE":"U","NORAD_CAT_ID":51653,"ELEMENT_SET_NO":999,"REV_AT_EPOCH":19422,"BSTAR":-0.0012931,"MEAN_MOTION_DOT":-4.39e-6,"MEAN_MOTION_DDOT":0},{"OBJECT_NAME":"ONEWEB-0474","OBJECT_ID":"2022-012AJ","EPOCH":"2026-02-22T00:31:34.527360","MEAN_MOTION":13.103693,"ECCENTRICITY":0.0001569,"INCLINATION":87.8759,"RA_OF_ASC_NODE":59.1922,"ARG_OF_PERICENTER":92.0919,"MEAN_ANOMALY":268.0388,"EPHEMERIS_TYPE":0,"CLASSIFICATION_TYPE":"U","NORAD_CAT_ID":51654,"ELEMENT_SET_NO":999,"REV_AT_EPOCH":19421,"BSTAR":-0.00014284,"MEAN_MOTION_DOT":-3.7e-7,"MEAN_MOTION_DDOT":0},{"OBJECT_NAME":"ONEWEB-0475","OBJECT_ID":"2022-012AK","EPOCH":"2026-02-22T04:17:49.752384","MEAN_MOTION":13.17647899,"ECCENTRICITY":0.000119,"INCLINATION":87.9124,"RA_OF_ASC_NODE":28.7146,"ARG_OF_PERICENTER":81.577,"MEAN_ANOMALY":278.5496,"EPHEMERIS_TYPE":0,"CLASSIFICATION_TYPE":"U","NORAD_CAT_ID":51655,"ELEMENT_SET_NO":999,"REV_AT_EPOCH":19854,"BSTAR":-1.5442e-5,"MEAN_MOTION_DOT":7.0e-8,"MEAN_MOTION_DDOT":0},{"OBJECT_NAME":"ONEWEB-0490","OBJECT_ID":"2022-138A","EPOCH":"2026-02-22T01:04:20.917056","MEAN_MOTION":13.19724216,"ECCENTRICITY":0.0001637,"INCLINATION":87.9255,"RA_OF_ASC_NODE":327.8925,"ARG_OF_PERICENTER":85.0592,"MEAN_ANOMALY":275.0727,"EPHEMERIS_TYPE":0,"CLASSIFICATION_TYPE":"U","NORAD_CAT_ID":54113,"ELEMENT_SET_NO":999,"REV_AT_EPOCH":16164,"BSTAR":0.00024302,"MEAN_MOTION_DOT":1.1e-6,"MEAN_MOTION_DDOT":0},{"OBJECT_NAME":"ONEWEB-0492","OBJECT_ID":"2022-138B","EPOCH":"2026-02-22T03:29:55.252032","MEAN_MOTION":13.19725147,"ECCENTRICITY":0.0001764,"INCLINATION":87.9249,"RA_OF_ASC_NODE":327.8817,"ARG_OF_PERICENTER":87.4686,"MEAN_ANOMALY":272.6649,"EPHEMERIS_TYPE":0,"CLASSIFICATION_TYPE":"U","NORAD_CAT_ID":54114,"ELEMENT_SET_NO":999,"REV_AT_EPOCH":16166,"BSTAR":9.0506e-5,"MEAN_MOTION_DOT":4.9e-7,"MEAN_MOTION_DDOT":0}]
